{
  "norad_id": 62572,
  "name": "STARLINK-32750",
  "history": [
    {
      "epoch": "2026-03-28T18:13:39.635328",
      "apogee_km": 484.0882480717728,
      "perigee_km": 481.7659151014386,
      "latitude_deg": -38.80121995410458,
      "longitude_deg": 150.11070592002943,
      "semi_major_axis_km": 6861.064081586605,
      "eccentricity": 0.00016924,
      "inclination_deg": 42.9987,
      "raan_deg": 184.4781,
      "arg_perigee_deg": 270.9209,
      "mean_anomaly_deg": 89.1449,
      "mean_motion_rev_day": 15.27620749
    }
  ]
}