{"fetched_at":"2026-03-29T16:36:15Z","count":15609,"tles":[{"name":"STARLINK-32750","line1":"1 62572U 25006U   26087.75948652  .00032988  00000+0  12014-2 0  9993","line2":"2 62572  42.9987 184.4781 0001692 270.9209  89.1449 15.27620749 67789","category":"Starlink"}]}